{
"type": "FeatureCollection",
"name": "migration-RY",
"crs": { "type": "name", "properties": { "name": "urn:ogc:def:crs:OGC:1.3:CRS84" } },
"features": [
{"type":"Feature","properties":{"OID_":0,"起点经":113.26246,"起点纬":25.041112,"起点年":"现代","终点经":113.268305,"终点纬":25.064086,"Shape_Leng":0.0237200340937},"geometry":{"type":"LineString","coordinates":[[105.000889876044425,0.000258926405454],[105.00088992161524,0.000259164230816]]}},
{"type":"Feature","properties":{"OID_":0,"起点经":113.2633198,"起点纬":25.0285171,"起点年":"清","终点经":113.261744,"终点纬":25.030072,"Shape_Leng":0.0022627424658200001},"geometry":{"type":"LineString","coordinates":[[105.000889882328963,0.000258796118141],[105.000889869758254,0.0002588126627]]}},
{"type":"Feature","properties":{"OID_":0,"起点经":113.261744,"起点纬":25.030072,"起点年":"清","终点经":113.265552,"终点纬":25.033319,"Shape_Leng":0.0050447985968899997},"geometry":{"type":"LineString","coordinates":[[105.000889869758254,0.0002588126627],[105.000889900399827,0.000258845751175]]}},
{"type":"Feature","properties":{"OID_":0,"起点经":113.244924,"起点纬":25.001284,"起点年":"明","终点经":113.254166,"终点纬":25.018154,"Shape_Leng":0.019289894334899998},"geometry":{"type":"LineString","coordinates":[[105.000889737762691,0.000258514864873],[105.000889810831737,0.000258689614334]]}},
{"type":"Feature","properties":{"OID_":0,"起点经":113.26246,"起点纬":25.041112,"起点年":"现代","终点经":113.264887,"终点纬":25.067602,"Shape_Leng":0.0266084569588},"geometry":{"type":"LineString","coordinates":[[105.000889876044425,0.000258926405454],[105.0008898949025,0.000259200422015]]}},
{"type":"Feature","properties":{"OID_":0,"起点经":113.305814,"起点纬":24.997704,"起点年":"清","终点经":113.328735,"终点纬":25.009911,"Shape_Leng":0.0259470615693},"geometry":{"type":"LineString","coordinates":[[105.000890216238986,0.000258477634316],[105.000890396159591,0.00025860378331]]}},
{"type":"Feature","properties":{"OID_":0,"起点经":113.305378,"起点纬":24.992293,"起点年":"清","终点经":113.328735,"终点纬":25.009911,"Shape_Leng":0.0292001708039},"geometry":{"type":"LineString","coordinates":[[105.0008902130959,0.000258421796964],[105.000890396159591,0.00025860378331]]}},
{"type":"Feature","properties":{"OID_":0,"起点经":113.305378,"起点纬":24.992293,"起点年":"现代","终点经":113.3054448,"终点纬":25.0163251,"Shape_Leng":0.024000000208599999},"geometry":{"type":"LineString","coordinates":[[105.0008902130959,0.000258421796964],[105.000890213097591,0.000258669963111]]}},
{"type":"Feature","properties":{"OID_":0,"起点经":113.305378,"起点纬":24.992293,"起点年":"现代","终点经":113.305383,"终点纬":25.021542,"Shape_Leng":0.029199999757100002},"geometry":{"type":"LineString","coordinates":[[105.0008902130959,0.000258421796964],[105.000890213097961,0.000258723732435]]}},
{"type":"Feature","properties":{"OID_":0,"起点经":113.267553,"起点纬":24.95638,"起点年":"现代","终点经":113.215532,"终点纬":24.99525,"Shape_Leng":0.065020149979599998},"geometry":{"type":"LineString","coordinates":[[105.000889916107923,0.00025805058526],[105.000889506773589,0.000258452826055]]}},
{"type":"Feature","properties":{"OID_":0,"起点经":113.257495,"起点纬":24.902029,"起点年":"清","终点经":113.270885,"终点纬":24.952224,"Shape_Leng":0.0519576753682},"geometry":{"type":"LineString","coordinates":[[105.000889836750844,0.000257488076217],[105.000889942034945,0.000258007155867]]}},
{"type":"Feature","properties":{"OID_":0,"起点经":113.270885,"起点纬":24.952224,"起点年":"民国","终点经":113.255451,"终点纬":24.956554,"Shape_Leng":0.016016241669600001},"geometry":{"type":"LineString","coordinates":[[105.000889942034945,0.000258007155867],[105.00088982104117,0.00025805265442]]}},
{"type":"Feature","properties":{"OID_":0,"起点经":113.245744,"起点纬":24.931886,"起点年":"清","终点经":113.255451,"终点纬":24.956554,"Shape_Leng":0.026573106016099999},"geometry":{"type":"LineString","coordinates":[[105.000889744043221,0.00025779725099],[105.00088982104117,0.00025805265442]]}},
{"type":"Feature","properties":{"OID_":0,"起点经":113.245744,"起点纬":24.931886,"起点年":"清","终点经":113.255451,"终点纬":24.956554,"Shape_Leng":0.026573106016099999},"geometry":{"type":"LineString","coordinates":[[105.000889744043221,0.00025779725099],[105.00088982104117,0.00025805265442]]}},
{"type":"Feature","properties":{"OID_":0,"起点经":113.346377,"起点纬":24.884069,"起点年":"清","终点经":113.2773838,"终点纬":24.9453191,"Shape_Leng":0.092230364869000006},"geometry":{"type":"LineString","coordinates":[[105.000890535215362,0.000257302977393],[105.000889993103371,0.000257935807498]]}},
{"type":"Feature","properties":{"OID_":0,"起点经":113.270909,"起点纬":24.935553,"起点年":"清","终点经":113.270855,"终点纬":24.957976,"Shape_Leng":0.022399999201300001},"geometry":{"type":"LineString","coordinates":[[105.000889942033766,0.000257835507622],[105.000889942035343,0.000258067129353]]}},
{"type":"Feature","properties":{"OID_":0,"起点经":113.257495,"起点纬":24.902029,"起点年":"明","终点经":113.267553,"终点纬":24.95638,"Shape_Leng":0.055329648193300003},"geometry":{"type":"LineString","coordinates":[[105.000889836750844,0.000257488076217],[105.000889916107923,0.00025805058526]]}},
{"type":"Feature","properties":{"OID_":0,"起点经":113.257495,"起点纬":24.902029,"起点年":"清","终点经":113.282505,"终点纬":24.955585,"Shape_Leng":0.059143553738499999},"geometry":{"type":"LineString","coordinates":[[105.000889836750844,0.000257488076217],[105.000890033173562,0.000258042311682]]}},
{"type":"Feature","properties":{"OID_":0,"起点经":113.288421,"起点纬":24.916369,"起点年":"明","终点经":113.286634,"终点纬":24.962444,"Shape_Leng":0.046035203105300002},"geometry":{"type":"LineString","coordinates":[[105.000890079525689,0.000257636973067],[105.000890065386756,0.000258112625032]]}},
{"type":"Feature","properties":{"OID_":0,"起点经":113.305814,"起点纬":24.997704,"起点年":"明","终点经":113.3013118,"终点纬":24.9657251,"Shape_Leng":0.032314857560599999},"geometry":{"type":"LineString","coordinates":[[105.000890216238986,0.000258477634316],[105.000890180881328,0.000258146746506]]}},
{"type":"Feature","properties":{"OID_":0,"起点经":113.3013118,"起点纬":24.9657251,"起点年":"现代","终点经":113.325441,"终点纬":24.972177,"Shape_Leng":0.024961168118300001},"geometry":{"type":"LineString","coordinates":[[105.000890180881328,0.000258146746506],[105.000890370229641,0.000258213955955]]}},
{"type":"Feature","properties":{"OID_":0,"起点经":113.286634,"起点纬":24.962444,"起点年":"现代","终点经":113.31666,"终点纬":24.976244,"Shape_Leng":0.033112685948299997},"geometry":{"type":"LineString","coordinates":[[105.000890065386756,0.000258112625032],[105.00089030187614,0.000258255317797]]}},
{"type":"Feature","properties":{"OID_":0,"起点经":113.288421,"起点纬":24.916369,"起点年":"清","终点经":113.298211,"终点纬":24.948843,"Shape_Leng":0.033849667057200002},"geometry":{"type":"LineString","coordinates":[[105.000890079525689,0.000257636973067],[105.000890156524179,0.000257971996479]]}},
{"type":"Feature","properties":{"OID_":0,"起点经":113.311804,"起点纬":24.923226,"起点年":"现代","终点经":113.322496,"终点纬":24.966688,"Shape_Leng":0.044796651901899999},"geometry":{"type":"LineString","coordinates":[[105.000890263374288,0.000257707284619],[105.000890347444681,0.000258157084794]]}},
{"type":"Feature","properties":{"OID_":0,"起点经":113.270372,"起点纬":25.002958,"起点年":"现代","终点经":113.28173,"终点纬":25.018847,"Shape_Leng":0.019424984801900001},"geometry":{"type":"LineString","coordinates":[[105.00088993811012,0.000258532440944],[105.000890026892606,0.000258695815956]]}},
{"type":"Feature","properties":{"OID_":0,"起点经":113.276516,"起点纬":24.993897,"起点年":"清","终点经":113.273121,"终点纬":24.993343,"Shape_Leng":0.00345253693445},"geometry":{"type":"LineString","coordinates":[[105.00088998603573,0.000258438344032],[105.000889959322691,0.000258432140213]]}},
{"type":"Feature","properties":{"OID_":0,"起点经":113.268319,"起点纬":24.845856,"起点年":null,"终点经":113.279519,"终点纬":25.021267,"Shape_Leng":0.17575721895300001},"geometry":{"type":"LineString","coordinates":[[105.000889921599892,0.000256907986831],[105.000890009607929,0.000258721666803]]}},
{"type":"Feature","properties":{"OID_":0,"起点经":113.288421,"起点纬":24.916369,"起点年":null,"终点经":113.269928,"终点纬":24.993093,"Shape_Leng":0.078899555639599994},"geometry":{"type":"LineString","coordinates":[[105.000890079525689,0.000257636973067],[105.000889934181075,0.00025843007244]]}},
{"type":"Feature","properties":{"OID_":0,"起点经":113.273121,"起点纬":24.993343,"起点年":"清","终点经":113.2730228,"终点纬":25.0070721,"Shape_Leng":0.013800362166900001},"geometry":{"type":"LineString","coordinates":[[105.000889959322691,0.000258432140213],[105.000889958537968,0.000258574835763]]}},
{"type":"Feature","properties":{"OID_":0,"起点经":113.282505,"起点纬":24.955585,"起点年":"民国","终点经":113.272112,"终点纬":24.978902,"Shape_Leng":0.0255156807514},"geometry":{"type":"LineString","coordinates":[[105.000890033173562,0.000258042311682],[105.000889951464941,0.000258283240623]]}},
{"type":"Feature","properties":{"OID_":0,"起点经":113.244924,"起点纬":25.001284,"起点年":"清","终点经":113.261577,"终点纬":24.997451,"Shape_Leng":0.017126879054699999},"geometry":{"type":"LineString","coordinates":[[105.000889737762691,0.000258514864873],[105.000889868970276,0.000258475570349]]}},
{"type":"Feature","properties":{"OID_":0,"起点经":113.270909,"起点纬":24.935553,"起点年":"清","终点经":113.26208,"终点纬":24.990705,"Shape_Leng":0.055798296995499999},"geometry":{"type":"LineString","coordinates":[[105.000889942033766,0.000257835507622],[105.000889872898185,0.000258405256578]]}},
{"type":"Feature","properties":{"OID_":0,"起点经":113.245744,"起点纬":24.931886,"起点年":"明","终点经":113.244924,"终点纬":25.001284,"Shape_Leng":0.069404610279799994},"geometry":{"type":"LineString","coordinates":[[105.000889744043221,0.00025779725099],[105.000889737762691,0.000258514864873]]}},
{"type":"Feature","properties":{"OID_":0,"起点经":113.106528,"起点纬":24.953909,"起点年":"清","终点经":113.0951758,"终点纬":24.9730691,"Shape_Leng":0.0222784655775},"geometry":{"type":"LineString","coordinates":[[105.00088865038407,0.000258024749537],[105.000888561604029,0.000258223283526]]}},
{"type":"Feature","properties":{"OID_":0,"起点经":113.106528,"起点纬":24.953909,"起点年":"清","终点经":113.070334,"终点纬":24.982481,"Shape_Leng":0.046134584146099999},"geometry":{"type":"LineString","coordinates":[[105.00088865038407,0.000258024749537],[105.000888365971448,0.000258320484218]]}},
{"type":"Feature","properties":{"OID_":0,"起点经":113.156552,"起点纬":24.983577,"起点年":"清","终点经":113.098661,"终点纬":24.96926,"Shape_Leng":0.059639748561699998},"geometry":{"type":"LineString","coordinates":[[105.000889044009696,0.000258331850534],[105.000888589102445,0.000258183990179]]}},
{"type":"Feature","properties":{"OID_":0,"起点经":113.048673,"起点纬":24.973228,"起点年":"现代","终点经":113.0611618,"终点纬":24.9599721,"Shape_Leng":0.018179383363700001},"geometry":{"type":"LineString","coordinates":[[105.000888196264825,0.000258224321829],[105.00088829447337,0.000258087829288]]}},
{"type":"Feature","properties":{"OID_":0,"起点经":113.048673,"起点纬":24.973228,"起点年":"现代","终点经":113.0625648,"终点纬":24.9595081,"Shape_Leng":0.019516659986299999},"geometry":{"type":"LineString","coordinates":[[105.000888196264825,0.000258224321829],[105.000888305472799,0.000258082659034]]}},
{"type":"Feature","properties":{"OID_":0,"起点经":113.048673,"起点纬":24.973228,"起点年":"现代","终点经":113.0611618,"终点纬":24.9599721,"Shape_Leng":0.018179383363700001},"geometry":{"type":"LineString","coordinates":[[105.000888196264825,0.000258224321829],[105.00088829447337,0.000258087829288]]}},
{"type":"Feature","properties":{"OID_":0,"起点经":113.197539,"起点纬":24.939577,"起点年":"现代","终点经":113.0571008,"终点纬":24.9608311,"Shape_Leng":0.14199154886900001},"geometry":{"type":"LineString","coordinates":[[105.000889365348044,0.000257876875433],[105.000888262260716,0.000258096101867]]}},
{"type":"Feature","properties":{"OID_":0,"起点经":113.126015,"起点纬":24.954426,"起点年":"清","终点经":113.0630835,"终点纬":24.9579978,"Shape_Leng":0.063002935731000007},"geometry":{"type":"LineString","coordinates":[[105.000888803590868,0.00025802991786],[105.000888309401049,0.000258067148584]]}},
{"type":"Feature","properties":{"OID_":0,"起点经":113.139467,"起点纬":24.989108,"起点年":"清","终点经":113.186894,"终点纬":24.988251,"Shape_Leng":0.047406752003199999},"geometry":{"type":"LineString","coordinates":[[105.000888909659551,0.000258388723515],[105.000889282069821,0.000258380446918]]}},
{"type":"Feature","properties":{"OID_":0,"起点经":113.1985698,"起点纬":24.9725861,"起点年":"民国","终点经":113.171787,"终点纬":24.97892,"Shape_Leng":0.027530531443400001},"geometry":{"type":"LineString","coordinates":[[105.000889373992791,0.000258218103807],[105.000889163432106,0.000258283249911]]}},
{"type":"Feature","properties":{"OID_":0,"起点经":113.144271,"起点纬":25.087447,"起点年":"明","终点经":113.182542,"终点纬":24.998404,"Shape_Leng":0.096851639684600005},"geometry":{"type":"LineString","coordinates":[[105.000888947378897,0.000259405170265],[105.000889247500808,0.000258484883928]]}},
{"type":"Feature","properties":{"OID_":0,"起点经":113.1829198,"起点纬":24.9730501,"起点年":"现代","终点经":113.189482,"终点纬":24.980851,"Shape_Leng":0.0102176316349},"geometry":{"type":"LineString","coordinates":[[105.00088925064172,0.000258223275381],[105.000889302496873,0.000258303928773]]}},
{"type":"Feature","properties":{"OID_":0,"起点经":113.199389,"起点纬":24.957432,"起点年":"清","终点经":113.212732,"终点纬":24.965673,"Shape_Leng":0.015677370375199999},"geometry":{"type":"LineString","coordinates":[[105.000889380277115,0.000258060931815],[105.000889484772557,0.000258146754728]]}},
{"type":"Feature","properties":{"OID_":0,"起点经":113.138791,"起点纬":24.985412,"起点年":"清","终点经":113.142525,"终点纬":24.989432,"Shape_Leng":0.0054488530981000004},"geometry":{"type":"LineString","coordinates":[[105.000888904159538,0.000258350464631],[105.000888933229831,0.000258391825307]]}},
{"type":"Feature","properties":{"OID_":0,"起点经":113.138791,"起点纬":24.985412,"起点年":"清","终点经":113.139467,"终点纬":24.989108,"Shape_Leng":0.0037656344318300001},"geometry":{"type":"LineString","coordinates":[[105.000888904159538,0.000258350464631],[105.000888909659551,0.000258388723515]]}},
{"type":"Feature","properties":{"OID_":0,"起点经":113.124466,"起点纬":24.943921,"起点年":"清","终点经":113.124154,"终点纬":24.940033,"Shape_Leng":0.0039115211556900002},"geometry":{"type":"LineString","coordinates":[[105.000888791804982,0.000257921345315],[105.000888789447714,0.000257881018314]]}},
{"type":"Feature","properties":{"OID_":0,"起点经":113.152301,"起点纬":24.916932,"起点年":"清","终点经":113.154915,"终点纬":24.936824,"Shape_Leng":0.020069131083299999},"geometry":{"type":"LineString","coordinates":[[105.000889010220959,0.000257642155804],[105.00088903064993,0.000257847926666]]}},
{"type":"Feature","properties":{"OID_":0,"起点经":113.152699,"起点纬":24.918454,"起点年":"明","终点经":113.1356398,"终点纬":24.9196811,"Shape_Leng":0.017142052499600002},"geometry":{"type":"LineString","coordinates":[[105.000889013363789,0.000257658700152],[105.000888879013317,0.000257671110064]]}},
{"type":"Feature","properties":{"OID_":0,"起点经":113.152699,"起点纬":24.918454,"起点年":"清","终点经":113.1387868,"终点纬":24.9162171,"Shape_Leng":0.0140890033679},"geometry":{"type":"LineString","coordinates":[[105.000889013363789,0.000257658700152],[105.000888904154678,0.000257634918876]]}},
{"type":"Feature","properties":{"OID_":0,"起点经":113.100333,"起点纬":25.057553,"起点年":"明","终点经":113.162789,"终点纬":24.955787,"Shape_Leng":0.11945497084700001},"geometry":{"type":"LineString","coordinates":[[105.000888601679449,0.000259097034694],[105.00088909271966,0.000258044390785]]}},
{"type":"Feature","properties":{"OID_":0,"起点经":113.138791,"起点纬":24.985412,"起点年":"清","终点经":113.1678588,"终点纬":24.9441331,"Shape_Leng":0.050522272558500003},"geometry":{"type":"LineString","coordinates":[[105.000888904159538,0.000258350464631],[105.000889132788316,0.000257923409327]]}},
{"type":"Feature","properties":{"OID_":0,"起点经":113.138791,"起点纬":24.985412,"起点年":"现代","终点经":113.1670838,"终点纬":24.9448941,"Shape_Leng":0.0494078954738},"geometry":{"type":"LineString","coordinates":[[105.000888904159538,0.000258350464631],[105.000889126502955,0.000257931681606]]}},
{"type":"Feature","properties":{"OID_":0,"起点经":113.179989,"起点纬":24.925565,"起点年":"清","终点经":113.173809,"终点纬":24.910712,"Shape_Leng":0.016138463466300001},"geometry":{"type":"LineString","coordinates":[[105.000889227853762,0.000257732113453],[105.000889179140827,0.00025757804422]]}},
{"type":"Feature","properties":{"OID_":0,"起点经":113.144271,"起点纬":25.087447,"起点年":"现代","终点经":113.1768842,"终点纬":24.9317311,"Shape_Leng":0.159076239689},"geometry":{"type":"LineString","coordinates":[[105.000888947378897,0.000259405170265],[105.000889203498247,0.00025779518932]]}},
{"type":"Feature","properties":{"OID_":0,"起点经":113.1780788,"起点纬":24.9503831,"起点年":"清","终点经":113.195226,"终点纬":24.92321,"Shape_Leng":0.032128647368099998},"geometry":{"type":"LineString","coordinates":[[105.000889212927689,0.000257988552001],[105.000889347276328,0.000257707295427]]}},
{"type":"Feature","properties":{"OID_":0,"起点经":113.1475065,"起点纬":24.8148525,"起点年":"明","终点经":113.1778038,"终点纬":24.8996001,"Shape_Leng":0.089956545112099995},"geometry":{"type":"LineString","coordinates":[[105.000888972501372,0.000256587450048],[105.000889210567067,0.000257463266991]]}},
{"type":"Feature","properties":{"OID_":0,"起点经":113.183623,"起点纬":24.931137,"起点年":"现代","终点经":113.191651,"终点纬":24.938192,"Shape_Leng":0.010771257539},"geometry":{"type":"LineString","coordinates":[[105.000889256138507,0.000257788984548],[105.000889319778736,0.000257862399602]]}},
{"type":"Feature","properties":{"OID_":0,"起点经":113.177706,"起点纬":24.927669,"起点年":"明","终点经":113.1551178,"终点纬":25.0105941,"Shape_Leng":0.085925375091200004},"geometry":{"type":"LineString","coordinates":[[105.000889209783395,0.000257753828211],[105.000889032226468,0.00025861103756]]}},
{"type":"Feature","properties":{"OID_":0,"起点经":113.18513,"起点纬":25.0251,"起点年":"清","终点经":113.166118,"终点纬":25.002733,"Shape_Leng":0.0293727774224},"geometry":{"type":"LineString","coordinates":[[105.000889267930248,0.000258760968551],[105.000889118650264,0.000258529348539]]}},
{"type":"Feature","properties":{"OID_":0,"起点经":113.177706,"起点纬":24.927669,"起点年":"明","终点经":113.151333,"终点纬":25.017206,"Shape_Leng":0.093312432975500001},"geometry":{"type":"LineString","coordinates":[[105.000889209783395,0.000257753828211],[105.000889002371252,0.000258679283603]]}},
{"type":"Feature","properties":{"OID_":0,"起点经":113.159297,"起点纬":25.024547,"起点年":"民国","终点经":113.163289,"终点纬":25.009738,"Shape_Leng":0.015331014492799999},"geometry":{"type":"LineString","coordinates":[[105.000889065225834,0.000258754766752],[105.000889096651846,0.000258601730595]]}},
{"type":"Feature","properties":{"OID_":0,"起点经":113.163289,"起点纬":25.009738,"起点年":"现代","终点经":113.163289,"终点纬":25.009738,"Shape_Leng":0.0},"geometry":null},
{"type":"Feature","properties":{"OID_":0,"起点经":113.124212,"起点纬":24.946845,"起点年":"明","终点经":113.172773,"终点纬":25.039032,"Shape_Leng":0.10422475671299999},"geometry":{"type":"LineString","coordinates":[[105.000888789448183,0.000257951332075],[105.000889171293096,0.00025890469923]]}},
{"type":"Feature","properties":{"OID_":0,"起点经":113.149118,"起点纬":24.933004,"起点年":"清","终点经":113.198653,"终点纬":25.048303,"Shape_Leng":0.125515935543},"geometry":{"type":"LineString","coordinates":[[105.000888985080465,0.000257808634228],[105.000889374783782,0.000259000861219]]}},
{"type":"Feature","properties":{"OID_":0,"起点经":113.172773,"起点纬":25.039032,"起点年":"清","终点经":113.198653,"终点纬":25.048303,"Shape_Leng":0.027519083210399999},"geometry":{"type":"LineString","coordinates":[[105.000889171293096,0.00025890469923],[105.000889374783782,0.000259000861219]]}},
{"type":"Feature","properties":{"OID_":0,"起点经":113.1514398,"起点纬":24.9903141,"起点年":"清","终点经":113.163963,"终点纬":24.989142,"Shape_Leng":0.012657014792600001},"geometry":{"type":"LineString","coordinates":[[105.000889003155052,0.000258401130708],[105.000889102150126,0.000258388721251]]}},
{"type":"Feature","properties":{"OID_":0,"起点经":113.151333,"起点纬":25.017206,"起点年":"明","终点经":113.158209,"终点纬":25.004331,"Shape_Leng":0.014629422594700001},"geometry":{"type":"LineString","coordinates":[[105.000889002371252,0.000258679283603],[105.000889056581997,0.000258545893676]]}},
{"type":"Feature","properties":{"OID_":0,"起点经":113.0632728,"起点纬":24.9579421,"起点年":"现代","终点经":113.1732698,"终点纬":25.0133941,"Shape_Leng":0.123208159894},"geometry":{"type":"LineString","coordinates":[[105.0008883109724,0.000258066114553],[105.000889175219683,0.000258639988613]]}},
{"type":"Feature","properties":{"OID_":0,"起点经":113.151333,"起点纬":25.017206,"起点年":"清","终点经":113.158252,"终点纬":24.9931019,"Shape_Leng":0.025096016496799999},"geometry":{"type":"LineString","coordinates":[[105.000889002371252,0.000258679283603],[105.000889057366891,0.000258430082771]]}},
{"type":"Feature","properties":{"OID_":0,"起点经":113.177706,"起点纬":24.927669,"起点年":"清","终点经":113.164515,"终点纬":25.004186,"Shape_Leng":0.077630471235399998},"geometry":{"type":"LineString","coordinates":[[105.000889209783395,0.000257753828211],[105.000889106079583,0.000258544859079]]}},
{"type":"Feature","properties":{"OID_":0,"起点经":113.207558,"起点纬":24.95044,"起点年":"明","终点经":113.156855,"终点纬":24.994669,"Shape_Leng":0.0673274095564},"geometry":{"type":"LineString","coordinates":[[105.000889444702054,0.000257988549283],[105.000889046367519,0.000258446627352]]}},
{"type":"Feature","properties":{"OID_":0,"起点经":113.144271,"起点纬":25.087447,"起点年":"清","终点经":113.168245,"终点纬":25.10654,"Shape_Leng":0.030594445784700001},"geometry":{"type":"LineString","coordinates":[[105.000888947378897,0.000259405170265],[105.000889135156768,0.000259602666972]]}},
{"type":"Feature","properties":{"OID_":0,"起点经":113.139066,"起点纬":25.036864,"起点年":"清","终点经":113.165444,"终点纬":25.104967,"Shape_Leng":0.073002054786699994},"geometry":{"type":"LineString","coordinates":[[105.000888906520217,0.000258882987801],[105.000889113157726,0.000259587156854]]}},
{"type":"Feature","properties":{"OID_":0,"起点经":113.1598211,"起点纬":25.1002924,"起点年":"清","终点经":113.1514398,"终点纬":24.9903141,"Shape_Leng":0.110320261441},"geometry":{"type":"LineString","coordinates":[[105.000889069159555,0.000259538558161],[105.000889003155052,0.000258401130708]]}},
{"type":"Feature","properties":{"OID_":0,"起点经":113.100333,"起点纬":25.057553,"起点年":"清","终点经":113.1273948,"终点纬":25.0717611,"Shape_Leng":0.030594934734},"geometry":{"type":"LineString","coordinates":[[105.000888601679449,0.000259097034694],[105.000888814598596,0.000259243863859]]}},
{"type":"Feature","properties":{"OID_":0,"起点经":113.139066,"起点纬":25.036864,"起点年":"清","终点经":113.128372,"终点纬":25.072931,"Shape_Leng":0.037556490681399997},"geometry":{"type":"LineString","coordinates":[[105.000888906520217,0.000258882987801],[105.000888822455451,0.000259255238031]]}},
{"type":"Feature","properties":{"OID_":0,"起点经":113.122003,"起点纬":25.026007,"起点年":"清","终点经":113.128409,"终点纬":25.006684,"Shape_Leng":0.0203334698609},"geometry":{"type":"LineString","coordinates":[[105.000888772168892,0.000258770280598],[105.00088882245079,0.000258570713044]]}},
{"type":"Feature","properties":{"OID_":0,"起点经":113.139066,"起点纬":25.036864,"起点年":"清","终点经":113.124324,"终点纬":25.038957,"Shape_Leng":0.0149482449927},"geometry":{"type":"LineString","coordinates":[[105.000888906520217,0.000258882987801],[105.000888790240325,0.000258904703724]]}},
{"type":"Feature","properties":{"OID_":0,"起点经":113.1375538,"起点纬":25.0312971,"起点年":"明","终点经":113.127594,"终点纬":25.031507,"Shape_Leng":0.010002001432},"geometry":{"type":"LineString","coordinates":[[105.000888894734686,0.00025882508251],[105.000888816167105,0.000258827151493]]}},
{"type":"Feature","properties":{"OID_":0,"起点经":113.127594,"起点纬":25.031507,"起点年":"清","终点经":113.129844,"终点纬":25.035647,"Shape_Leng":0.0046529564720600002},"geometry":{"type":"LineString","coordinates":[[105.000888816167105,0.000258827151493],[105.000888833452265,0.000258869546333]]}},
{"type":"Feature","properties":{"OID_":0,"起点经":113.139066,"起点纬":25.036864,"起点年":"民国","终点经":113.124777,"终点纬":25.03021,"Shape_Leng":0.015791769851},"geometry":{"type":"LineString","coordinates":[[105.000888906520217,0.000258882987801],[105.000888794168105,0.000258813709425]]}},
{"type":"Feature","properties":{"OID_":0,"起点经":113.1554758,"起点纬":24.9649641,"起点年":"现代","终点经":113.1554758,"终点纬":24.9649641,"Shape_Leng":0.0},"geometry":null},
{"type":"Feature","properties":{"OID_":0,"起点经":113.139066,"起点纬":25.036864,"起点年":"明","终点经":113.1405928,"终点纬":25.0194581,"Shape_Leng":0.0174645347501},"geometry":{"type":"LineString","coordinates":[[105.000888906520217,0.000258882987801],[105.000888918304113,0.000258703067188]]}},
{"type":"Feature","properties":{"OID_":0,"起点经":113.139066,"起点纬":25.036864,"起点年":"明","终点经":113.1375538,"终点纬":25.0312971,"Shape_Leng":0.0057974128460299996},"geometry":{"type":"LineString","coordinates":[[105.000888906520217,0.000258882987801],[105.000888894734686,0.00025882508251]]}},
{"type":"Feature","properties":{"OID_":0,"起点经":113.100333,"起点纬":25.057553,"起点年":"清","终点经":113.092893,"终点纬":25.029796,"Shape_Leng":0.028768037724500001},"geometry":{"type":"LineString","coordinates":[[105.000888601679449,0.000259097034694],[105.000888543537485,0.000258809576276]]}},
{"type":"Feature","properties":{"OID_":0,"起点经":113.040873,"起点纬":24.565807,"起点年":"现代","终点经":113.0513148,"终点纬":24.5579921,"Shape_Leng":0.013000000640699999},"geometry":{"type":"LineString","coordinates":[[105.000888134953456,0.000254011701946],[105.000888216663199,0.000253931046979]]}},
{"type":"Feature","properties":{"OID_":0,"起点经":113.0846398,"起点纬":24.5734111,"起点年":"民国","终点经":113.0846398,"终点纬":24.5734111,"Shape_Leng":0.0},"geometry":null},
{"type":"Feature","properties":{"OID_":0,"起点经":113.0752728,"起点纬":24.5560641,"起点年":"现代","终点经":113.091557,"终点纬":24.555854,"Shape_Leng":0.016301227193799998},"geometry":{"type":"LineString","coordinates":[[105.000888405225254,0.000253911398285],[105.000888533290393,0.000253909328726]]}},
{"type":"Feature","properties":{"OID_":0,"起点经":113.1159118,"起点纬":24.5316671,"起点年":"民国","终点经":113.114138,"终点纬":24.528503,"Shape_Leng":0.0036715105835300002},"geometry":{"type":"LineString","coordinates":[[105.000888724207883,0.000253659092265],[105.000888710065524,0.000253626003591]]}},
{"type":"Feature","properties":{"OID_":0,"起点经":113.1159118,"起点纬":24.5316671,"起点年":"明","终点经":113.113017,"终点纬":24.525856,"Shape_Leng":0.00648459611516},"geometry":{"type":"LineString","coordinates":[[105.000888724207883,0.000253659092265],[105.000888701422895,0.000253599119012]]}},
{"type":"Feature","properties":{"OID_":0,"起点经":113.0549818,"起点纬":24.5015811,"起点年":"民国","终点经":113.124433,"终点纬":24.528013,"Shape_Leng":0.074251735166800004},"geometry":{"type":"LineString","coordinates":[[105.000888245729229,0.000253347856166],[105.000888790990075,0.000253620832527]]}},
{"type":"Feature","properties":{"OID_":0,"起点经":113.0846398,"起点纬":24.5734111,"起点年":"清","终点经":113.1377618,"终点纬":24.5440081,"Shape_Leng":0.060783220692599997},"geometry":{"type":"LineString","coordinates":[[105.000888478294328,0.000254090283848],[105.000888896271761,0.000253786275378]]}},
{"type":"Feature","properties":{"OID_":0,"起点经":113.0549818,"起点纬":24.5015811,"起点年":"明","终点经":113.1398898,"终点纬":24.5413751,"Shape_Leng":0.093765931416399995},"geometry":{"type":"LineString","coordinates":[[105.000888245729229,0.000253347856166],[105.000888912770748,0.000253759390522]]}},
{"type":"Feature","properties":{"OID_":0,"起点经":113.133578,"起点纬":24.533235,"起点年":"明","终点经":113.074274,"终点纬":24.506514,"Shape_Leng":0.065033685254399995},"geometry":{"type":"LineString","coordinates":[[105.000888863272607,0.000253674601018],[105.000888397365003,0.000253398521633]]}},
{"type":"Feature","properties":{"OID_":0,"起点经":113.068691,"起点纬":24.48499,"起点年":"民国","终点经":113.0854011,"终点纬":24.4979839,"Shape_Leng":0.0211634110773},"geometry":{"type":"LineString","coordinates":[[105.000888353365653,0.000253176206611],[105.000888484574418,0.000253310628395]]}},
{"type":"Feature","properties":{"OID_":0,"起点经":113.0830426,"起点纬":24.5746443,"起点年":"明","终点经":113.0761618,"终点纬":24.5052941,"Shape_Leng":0.069632822309900005},"geometry":{"type":"LineString","coordinates":[[105.000888465723591,0.000254102692317],[105.000888412292767,0.000253386113142]]}},
{"type":"Feature","properties":{"OID_":0,"起点经":113.0854011,"起点纬":24.4979839,"起点年":"现代","终点经":113.0866928,"终点纬":24.5088721,"Shape_Leng":0.0109772492686},"geometry":{"type":"LineString","coordinates":[[105.000888484574418,0.000253310628395],[105.000888494788967,0.000253423337107]]}},
{"type":"Feature","properties":{"OID_":0,"起点经":113.1418288,"起点纬":24.5498751,"起点年":"明","终点经":113.077468,"终点纬":24.504612,"Shape_Leng":0.078654816237199998},"geometry":{"type":"LineString","coordinates":[[105.000888927699208,0.000253847282551],[105.000888422506492,0.000253378874826]]}},
{"type":"Feature","properties":{"OID_":0,"起点经":113.0549818,"起点纬":24.5015811,"起点年":"清","终点经":113.0850928,"终点纬":24.5074781,"Shape_Leng":0.0306727884619},"geometry":{"type":"LineString","coordinates":[[105.000888245729229,0.000253347856166],[105.000888482218045,0.000253408860898]]}},
{"type":"Feature","properties":{"OID_":0,"起点经":113.038155,"起点纬":24.510863,"起点年":"现代","终点经":113.025418,"终点纬":24.530301,"Shape_Leng":0.023242200977199999},"geometry":{"type":"LineString","coordinates":[[105.000888113736352,0.000253444022084],[105.000888013171249,0.000253644624257]]}},
{"type":"Feature","properties":{"OID_":0,"起点经":113.0555087,"起点纬":24.6781983,"起点年":"明","终点经":113.1337198,"终点纬":24.5361251,"Shape_Leng":0.16219633030799999},"geometry":{"type":"LineString","coordinates":[[105.000888249670041,0.000255173945484],[105.000888864058467,0.000253704587745]]}},
{"type":"Feature","properties":{"OID_":0,"起点经":113.0555087,"起点纬":24.6781983,"起点年":"明","终点经":113.1320228,"终点纬":24.5345531,"Shape_Leng":0.162705899711},"geometry":{"type":"LineString","coordinates":[[105.000888249670041,0.000255173945484],[105.000888850701884,0.000253689077505]]}},
{"type":"Feature","properties":{"OID_":0,"起点经":113.0555087,"起点纬":24.6781983,"起点年":"明","终点经":113.13831,"终点纬":24.50974,"Shape_Leng":0.18774474704300001},"geometry":{"type":"LineString","coordinates":[[105.000888249670041,0.000255173945484],[105.000888900197737,0.000253431604537]]}},
{"type":"Feature","properties":{"OID_":0,"起点经":113.0555087,"起点纬":24.6781983,"起点年":"明","终点经":113.1467228,"终点纬":24.5307421,"Shape_Leng":0.17341767381100001},"geometry":{"type":"LineString","coordinates":[[105.000888249670041,0.000255173945484],[105.000888966195944,0.000253648749128]]}},
{"type":"Feature","properties":{"OID_":0,"起点经":113.0555087,"起点纬":24.6781983,"起点年":"明","终点经":113.12813,"终点纬":24.532896,"Shape_Leng":0.16242798384400001},"geometry":{"type":"LineString","coordinates":[[105.000888249670041,0.000255173945484],[105.000888820060425,0.000253671499447]]}},
{"type":"Feature","properties":{"OID_":0,"起点经":113.0555087,"起点纬":24.6781983,"起点年":"明","终点经":113.133578,"终点纬":24.533235,"Shape_Leng":0.164695506327},"geometry":{"type":"LineString","coordinates":[[105.000888249670041,0.000255173945484],[105.000888863272607,0.000253674601018]]}},
{"type":"Feature","properties":{"OID_":0,"起点经":113.0555087,"起点纬":24.6781983,"起点年":"明","终点经":113.149976,"终点纬":24.528539,"Shape_Leng":0.17703202978099999},"geometry":{"type":"LineString","coordinates":[[105.000888249670041,0.000255173945484],[105.000888992123095,0.000253626000262]]}},
{"type":"Feature","properties":{"OID_":0,"起点经":113.0555087,"起点纬":24.6781983,"起点年":"明","终点经":113.150323,"终点纬":24.526017,"Shape_Leng":0.17930945303599999},"geometry":{"type":"LineString","coordinates":[[105.000888249670041,0.000255173945484],[105.000888994479951,0.000253600149592]]}},
{"type":"Feature","properties":{"OID_":0,"起点经":113.302379,"起点纬":24.940109,"起点年":"民国","终点经":113.3104648,"终点纬":24.9413391,"Shape_Leng":0.0081884056991799996},"geometry":{"type":"LineString","coordinates":[[105.000890189521954,0.000257882035856],[105.000890253161771,0.000257894443393]]}},
{"type":"Feature","properties":{"OID_":0,"起点经":113.287681,"起点纬":24.908989,"起点年":"民国","终点经":113.309751,"终点纬":24.918019,"Shape_Leng":0.023862311244300001},"geometry":{"type":"LineString","coordinates":[[105.000890074025435,0.000257560455221],[105.000890247660394,0.000257653515484]]}},
{"type":"Feature","properties":{"OID_":0,"起点经":113.288421,"起点纬":24.916369,"起点年":"清","终点经":113.311671,"终点纬":24.930725,"Shape_Leng":0.027338251153299999},"geometry":{"type":"LineString","coordinates":[[105.000890079525689,0.000257636973067],[105.000890262589152,0.000257784836562]]}},
{"type":"Feature","properties":{"OID_":0,"起点经":113.305814,"起点纬":24.997704,"起点年":"明","终点经":113.311804,"终点纬":24.923226,"Shape_Leng":0.074741220403099995},"geometry":{"type":"LineString","coordinates":[[105.000890216238986,0.000258477634316],[105.000890263374288,0.000257707284619]]}},
{"type":"Feature","properties":{"OID_":0,"起点经":113.4029488,"起点纬":24.8766123,"起点年":"民国","终点经":113.330525,"终点纬":24.922652,"Shape_Leng":0.085831054897499995},"geometry":{"type":"LineString","coordinates":[[105.000890979121635,0.000257225420213],[105.000890410295611,0.00025770211279]]}},
{"type":"Feature","properties":{"OID_":0,"起点经":113.282846,"起点纬":24.918861,"起点年":"清","终点经":113.321919,"终点纬":24.924607,"Shape_Leng":0.039513287635500001},"geometry":{"type":"LineString","coordinates":[[105.000890035528002,0.000257662824214],[105.000890342727629,0.00025772176004]]}},
{"type":"Feature","properties":{"OID_":0,"起点经":113.288421,"起点纬":24.916369,"起点年":"清","终点经":113.332352,"终点纬":24.930208,"Shape_Leng":0.046113338359100003},"geometry":{"type":"LineString","coordinates":[[105.000890079525689,0.000257636973067],[105.000890425224,0.000257779664511]]}},
{"type":"Feature","properties":{"OID_":0,"起点经":113.288421,"起点纬":24.916369,"起点年":"清","终点经":113.349996,"终点纬":24.939211,"Shape_Leng":0.065684091939699998},"geometry":{"type":"LineString","coordinates":[[105.000890079525689,0.000257636973067],[105.000890563503589,0.000257872725184]]}},
{"type":"Feature","properties":{"OID_":0,"起点经":113.288421,"起点纬":24.916369,"起点年":"清","终点经":113.329218,"终点纬":24.949665,"Shape_Leng":0.0526643121127},"geometry":{"type":"LineString","coordinates":[[105.000890079525689,0.000257636973067],[105.000890400083748,0.000257981299826]]}},
{"type":"Feature","properties":{"OID_":0,"起点经":113.244924,"起点纬":25.001284,"起点年":"清","终点经":113.342942,"终点纬":24.949543,"Shape_Leng":0.110847824431},"geometry":{"type":"LineString","coordinates":[[105.000889737762691,0.000258514864873],[105.000890507721309,0.000257979230489]]}},
{"type":"Feature","properties":{"OID_":0,"起点经":113.270909,"起点纬":24.935553,"起点年":"明","终点经":113.362473,"终点纬":24.930168,"Shape_Leng":0.091759033118000002},"geometry":{"type":"LineString","coordinates":[[105.000889942033766,0.000257835507622],[105.000890661712404,0.000257779661725]]}},
{"type":"Feature","properties":{"OID_":0,"起点经":113.177706,"起点纬":24.927669,"起点年":"清","终点经":113.40141,"终点纬":24.892212,"Shape_Leng":0.22649931384200001},"geometry":{"type":"LineString","coordinates":[[105.000889209783395,0.000257753828211],[105.000890967337611,0.000257386728372]]}},
{"type":"Feature","properties":{"OID_":0,"起点经":113.185432,"起点纬":24.733359,"起点年":"现代","终点经":113.3967898,"终点纬":24.8887311,"Shape_Leng":0.26231288434799999},"geometry":{"type":"LineString","coordinates":[[105.000889270266754,0.000255744715643],[105.000890931196281,0.000257350537894]]}},
{"type":"Feature","properties":{"OID_":0,"起点经":113.4029488,"起点纬":24.8766123,"起点年":"现代","终点经":113.4010318,"终点纬":24.8629831,"Shape_Leng":0.0137320792205},"geometry":{"type":"LineString","coordinates":[[105.000890979121635,0.000257225420213],[105.000890964192848,0.000257084792902]]}},
{"type":"Feature","properties":{"OID_":0,"起点经":113.4029488,"起点纬":24.8766123,"起点年":"现代","终点经":113.4026338,"终点纬":24.8619141,"Shape_Leng":0.0147030610317},"geometry":{"type":"LineString","coordinates":[[105.000890979121635,0.000257225420213],[105.000890976763586,0.000257073418475]]}},
{"type":"Feature","properties":{"OID_":0,"起点经":113.185432,"起点纬":24.733359,"起点年":"现代","终点经":113.390004,"终点纬":24.877307,"Shape_Leng":0.25013670146400002},"geometry":{"type":"LineString","coordinates":[[105.000889270266754,0.000255744715643],[105.000890877769521,0.000257232659605]]}},
{"type":"Feature","properties":{"OID_":0,"起点经":113.140396,"起点纬":24.986726,"起点年":"现代","终点经":113.4065198,"终点纬":24.8637721,"Shape_Leng":0.29311025276399999},"geometry":{"type":"LineString","coordinates":[[105.00088891673046,0.000258363906831],[105.000891007405073,0.000257093064627]]}},
{"type":"Feature","properties":{"OID_":0,"起点经":113.325329,"起点纬":24.894025,"起点年":"现代","终点经":113.384998,"终点纬":24.880318,"Shape_Leng":0.061251776491799997},"geometry":{"type":"LineString","coordinates":[[105.000890369438466,0.000257405347906],[105.000890838485958,0.00025726368085]]}},
{"type":"Feature","properties":{"OID_":0,"起点经":113.325329,"起点纬":24.894025,"起点年":"现代","终点经":113.3861118,"终点纬":24.8778331,"Shape_Leng":0.062921221684600001},"geometry":{"type":"LineString","coordinates":[[105.000890369438466,0.000257405347906],[105.000890847128204,0.000257237830103]]}},
{"type":"Feature","properties":{"OID_":0,"起点经":113.286934,"起点纬":24.872628,"起点年":"现代","终点经":113.3402038,"终点纬":24.8358081,"Shape_Leng":0.064769824282700006},"geometry":{"type":"LineString","coordinates":[[105.000890067737444,0.000257184069967],[105.000890486500055,0.000256803543585]]}},
{"type":"Feature","properties":{"OID_":0,"起点经":113.177706,"起点纬":24.927669,"起点年":"清","终点经":113.208534,"终点纬":24.904229,"Shape_Leng":0.038741321553000002},"geometry":{"type":"LineString","coordinates":[[105.000889209783395,0.000257753828211],[105.000889451769879,0.000257510829322]]}},
{"type":"Feature","properties":{"OID_":0,"起点经":113.226065,"起点纬":24.828612,"起点年":"民国","终点经":113.188462,"终点纬":24.832093,"Shape_Leng":0.037762550805899998},"geometry":{"type":"LineString","coordinates":[[105.000889590043485,0.000256729104299],[105.00088929462963,0.000256765298683]]}},
{"type":"Feature","properties":{"OID_":0,"起点经":113.239096,"起点纬":24.887393,"起点年":"现代","终点经":113.206823,"终点纬":24.887377,"Shape_Leng":0.032300002872899997},"geometry":{"type":"LineString","coordinates":[[105.000889692185496,0.000257337110208],[105.000889438412187,0.000257337113171]]}},
{"type":"Feature","properties":{"OID_":0,"起点经":113.200245,"起点纬":24.739603,"起点年":"清","终点经":113.1871818,"终点纬":24.7358971,"Shape_Leng":0.0135162867943},"geometry":{"type":"LineString","coordinates":[[105.000889386547186,0.000255808823854],[105.00088928440907,0.000255770566113]]}},
{"type":"Feature","properties":{"OID_":0,"起点经":113.074589,"起点纬":24.9834,"起点年":"现代","终点经":113.1476338,"终点纬":24.8116721,"Shape_Leng":0.186574086586},"geometry":{"type":"LineString","coordinates":[[105.000888399755553,0.000258329790051],[105.000888973286806,0.00025655436124]]}},
{"type":"Feature","properties":{"OID_":0,"起点经":113.122003,"起点纬":25.026007,"起点年":"现代","终点经":113.180355,"终点纬":24.739276,"Shape_Leng":0.29258750786299997},"geometry":{"type":"LineString","coordinates":[[105.000888772168892,0.000258770280598],[105.000889230983361,0.000255805723604]]}},
{"type":"Feature","properties":{"OID_":0,"起点经":113.134324,"起点纬":24.720255,"起点年":"现代","终点经":113.135823,"终点纬":24.718965,"Shape_Leng":0.0019849431896799999},"geometry":{"type":"LineString","coordinates":[[105.000888868785509,0.000255609263003],[105.000888880570542,0.000255595820525]]}},
{"type":"Feature","properties":{"OID_":0,"起点经":113.26504,"起点纬":24.939832,"起点年":"现代","终点经":113.216224,"终点纬":24.914407,"Shape_Leng":0.055014542554599997},"geometry":{"type":"LineString","coordinates":[[105.000889895679194,0.000257878937225],[105.000889512267634,0.000257616299242]]}},
{"type":"Feature","properties":{"OID_":0,"起点经":113.254933,"起点纬":24.935432,"起点年":"明","终点经":113.26504,"终点纬":24.939832,"Shape_Leng":0.0110168049744},"geometry":{"type":"LineString","coordinates":[[105.000889816325625,0.000257833441047],[105.000889895679194,0.000257878937225]]}},
{"type":"Feature","properties":{"OID_":0,"起点经":113.226065,"起点纬":24.828612,"起点年":"现代","终点经":113.2860648,"终点纬":24.8053111,"Shape_Leng":0.064365284256399993},"geometry":{"type":"LineString","coordinates":[[105.000889590043485,0.000256729104299],[105.000890061447308,0.000256488170764]]}},
{"type":"Feature","properties":{"OID_":0,"起点经":113.2534538,"起点纬":24.8418061,"起点年":"清","终点经":113.263891,"终点纬":24.825864,"Shape_Leng":0.018999211034},"geometry":{"type":"LineString","coordinates":[[105.000889805319574,0.000256865593134],[105.000889887028734,0.000256701182105]]}},
{"type":"Feature","properties":{"OID_":0,"起点经":113.260502,"起点纬":24.858091,"起点年":"民国","终点经":113.280264,"终点纬":24.803905,"Shape_Leng":0.057703379535400001},"geometry":{"type":"LineString","coordinates":[[105.000889860318011,0.000257034138676],[105.000890015877999,0.000256473694932]]}},
{"type":"Feature","properties":{"OID_":0,"起点经":113.240934,"起点纬":24.878014,"起点年":"民国","终点经":113.248939,"终点纬":24.832584,"Shape_Leng":0.046099457182499998},"geometry":{"type":"LineString","coordinates":[[105.000889706326959,0.000257239911591],[105.000889769177832,0.000256770463222]]}},
{"type":"Feature","properties":{"OID_":0,"起点经":113.262749,"起点纬":24.819674,"起点年":"清","终点经":113.239005,"终点纬":24.826899,"Shape_Leng":0.024769536612000001},"geometry":{"type":"LineString","coordinates":[[105.000889877600187,0.000256637072629],[105.000889691395543,0.000256711524665]]}},
{"type":"Feature","properties":{"OID_":0,"起点经":113.226065,"起点纬":24.828612,"起点年":"现代","终点经":113.205829,"终点纬":24.806534,"Shape_Leng":0.0300083325762},"geometry":{"type":"LineString","coordinates":[[105.000889590043485,0.000256729104299],[105.000889430549748,0.000256500586513]]}},
{"type":"Feature","properties":{"OID_":0,"起点经":113.4032678,"起点纬":24.9042671,"起点年":"现代","终点经":113.40763,"终点纬":24.902809,"Shape_Leng":0.0045541206855200002},"geometry":{"type":"LineString","coordinates":[[105.000890982266284,0.000257511845288],[105.000891016050261,0.000257496334515]]}},
{"type":"Feature","properties":{"OID_":0,"起点经":113.195226,"起点纬":24.92321,"起点年":"清","终点经":113.410279,"终点纬":24.895932,"Shape_Leng":0.21682550743500001},"geometry":{"type":"LineString","coordinates":[[105.000889347276328,0.000257707295427],[105.000891037263031,0.000257424986491]]}},
{"type":"Feature","properties":{"OID_":0,"起点经":113.3968395,"起点纬":24.873349,"起点年":"现代","终点经":113.406087,"终点纬":24.896693,"Shape_Leng":0.025180350113500002},"geometry":{"type":"LineString","coordinates":[[105.000890931195201,0.000257191297951],[105.000891004264702,0.000257433259103]]}},
{"type":"Feature","properties":{"OID_":0,"起点经":113.172606,"起点纬":24.994484,"起点年":"现代","终点经":113.3857838,"终点纬":25.0128561,"Shape_Leng":0.213992522455},"geometry":{"type":"LineString","coordinates":[[105.000889169718619,0.000258444557837],[105.000890844780699,0.000258634798796]]}},
{"type":"Feature","properties":{"OID_":0,"起点经":113.4331322,"起点纬":24.9850688,"起点年":"清","终点经":113.4401428,"终点纬":24.9715921,"Shape_Leng":0.0152069063074},"geometry":{"type":"LineString","coordinates":[[105.000891216403389,0.000258347335274],[105.000891271399723,0.000258207741162]]}},
{"type":"Feature","properties":{"OID_":0,"起点经":113.4331322,"起点纬":24.9850688,"起点年":"清","终点经":113.4369088,"终点纬":24.9706171,"Shape_Leng":0.0149896638546},"geometry":{"type":"LineString","coordinates":[[105.000891216403389,0.000258347335274],[105.00089124625805,0.000258197401198]]}},
{"type":"Feature","properties":{"OID_":0,"起点经":113.349638,"起点纬":24.966941,"起点年":"现代","终点经":113.4135698,"终点纬":24.9500941,"Shape_Leng":0.066168273366200001},"geometry":{"type":"LineString","coordinates":[[105.000890560362805,0.000258159150359],[105.000891063194146,0.000257985428093]]}},
{"type":"Feature","properties":{"OID_":0,"起点经":113.394342,"起点纬":25.011842,"起点年":"清","终点经":113.3939478,"终点纬":25.0063281,"Shape_Leng":0.0055145271214400004},"geometry":{"type":"LineString","coordinates":[[105.000890911563062,0.000258623423725],[105.000890908419962,0.00025856655232]]}},
{"type":"Feature","properties":{"OID_":0,"起点经":113.3968395,"起点纬":24.873349,"起点年":"现代","终点经":113.4364178,"终点纬":24.9566391,"Shape_Leng":0.092233670600500001},"geometry":{"type":"LineString","coordinates":[[105.000890931195201,0.000257191297951],[105.000891242328663,0.000258052637642]]}},
{"type":"Feature","properties":{"OID_":0,"起点经":113.028363,"起点纬":24.605875,"起点年":"现代","终点经":113.0465508,"终点纬":24.6755531,"Shape_Leng":0.072037003978400002},"geometry":{"type":"LineString","coordinates":[[105.000888036746815,0.000254426347405],[105.000888179744692,0.000255147061616]]}},
{"type":"Feature","properties":{"OID_":0,"起点经":113.060344,"起点纬":24.651261,"起点年":"现代","终点经":113.072576,"终点纬":24.654933,"Shape_Leng":0.012816005342400001},"geometry":{"type":"LineString","coordinates":[[105.000888287380576,0.000254895792123],[105.00088838401895,0.000254933015911]]}},
{"type":"Feature","properties":{"OID_":0,"起点经":113.26188,"起点纬":24.702102,"起点年":"明","终点经":113.126432,"终点纬":24.652166,"Shape_Leng":0.144396190073},"geometry":{"type":"LineString","coordinates":[[105.000889871306498,0.000255421058514],[105.000888806712339,0.000254905092219]]}},
{"type":"Feature","properties":{"OID_":0,"起点经":113.0549818,"起点纬":24.5015811,"起点年":"现代","终点经":113.1287118,"终点纬":24.6508331,"Shape_Leng":0.16641012559900001},"geometry":{"type":"LineString","coordinates":[[105.000888245729229,0.000253347856166],[105.000888824782763,0.000254890615688]]}},
{"type":"Feature","properties":{"OID_":0,"起点经":113.008697,"起点纬":24.780845,"起点年":"现代","终点经":113.0003338,"终点纬":24.7696221,"Shape_Leng":0.0139999978244},"geometry":{"type":"LineString","coordinates":[[105.000887881980972,0.000256234860152],[105.000887815983432,0.000256119050047]]}},
{"type":"Feature","properties":{"OID_":0,"起点经":113.003356,"起点纬":24.781663,"起点年":"现代","终点经":113.0066588,"终点纬":24.7810501,"Shape_Leng":0.0033541019329300001},"geometry":{"type":"LineString","coordinates":[[105.000887840340241,0.000256244166862],[105.00088786626749,0.0002562379624]]}},
{"type":"Feature","properties":{"OID_":0,"起点经":113.003356,"起点纬":24.781663,"起点年":"现代","终点经":113.0069838,"终点纬":24.7825861,"Shape_Leng":0.0037107925993499998},"geometry":{"type":"LineString","coordinates":[[105.000887840340241,0.000256244166862],[105.000887868624616,0.000256253472751]]}},
{"type":"Feature","properties":{"OID_":0,"起点经":113.009989,"起点纬":24.735095,"起点年":"现代","终点经":113.0112648,"终点纬":24.7364331,"Shape_Leng":0.00183847714218},"geometry":{"type":"LineString","coordinates":[[105.000887892191571,0.000255762310301],[105.000887902405438,0.000255775752502]]}},
{"type":"Feature","properties":{"OID_":0,"起点经":113.008697,"起点纬":24.780845,"起点年":"现代","终点经":113.008582,"终点纬":24.732104,"Shape_Leng":0.048700102824600001},"geometry":{"type":"LineString","coordinates":[[105.000887881980972,0.000256234860152],[105.000887881191886,0.000255731289633]]}},
{"type":"Feature","properties":{"OID_":0,"起点经":113.008698,"起点纬":24.703914,"起点年":"现代","终点经":112.9985398,"终点纬":24.6931861,"Shape_Leng":0.0147827588813},"geometry":{"type":"LineString","coordinates":[[105.000887881975558,0.000255439694415],[105.000887801835901,0.000255329054585]]}},
{"type":"Feature","properties":{"OID_":0,"起点经":113.022295,"起点纬":24.571989,"起点年":"清","终点经":113.026759,"终点纬":24.554829,"Shape_Leng":0.017778919245799999},"geometry":{"type":"LineString","coordinates":[[105.000887988818221,0.000254075813253],[105.000888024172397,0.000253897960435]]}},
{"type":"Feature","properties":{"OID_":0,"起点经":113.0099618,"起点纬":24.5518281,"起点年":"现代","终点经":112.976456,"终点纬":24.601816,"Shape_Leng":0.060185132137600003},"geometry":{"type":"LineString","coordinates":[[105.000887892178682,0.000253866941209],[105.000887628980806,0.000254383957147]]}},
{"type":"Feature","properties":{"OID_":0,"起点经":113.0099618,"起点纬":24.5518281,"起点年":"民国","终点经":112.9831928,"终点纬":24.5961311,"Shape_Leng":0.0517757681916},"geometry":{"type":"LineString","coordinates":[[105.000887892178682,0.000253866941209],[105.000887681620668,0.000254325017059]]}},
{"type":"Feature","properties":{"OID_":0,"起点经":113.0099618,"起点纬":24.5518281,"起点年":"现代","终点经":112.9981,"终点纬":24.59108,"Shape_Leng":0.041062148381600001},"geometry":{"type":"LineString","coordinates":[[105.000887892178682,0.000253866941209],[105.000887798686037,0.00025427331441]]}},
{"type":"Feature","properties":{"OID_":0,"起点经":113.0099618,"起点纬":24.5518281,"起点年":"现代","终点经":113.002778,"终点纬":24.618799,"Shape_Leng":0.06738575619000001},"geometry":{"type":"LineString","coordinates":[[105.000887892178682,0.000253866941209],[105.000887835614719,0.000254559739085]]}},
{"type":"Feature","properties":{"OID_":0,"起点经":113.0099618,"起点纬":24.5518281,"起点年":"现代","终点经":112.9699898,"终点纬":24.5904581,"Shape_Leng":0.055656897651000001},"geometry":{"type":"LineString","coordinates":[[105.000887892178682,0.000253866941209],[105.000887577911072,0.000254267112844]]}},
{"type":"Feature","properties":{"OID_":0,"起点经":113.0099618,"起点纬":24.5518281,"起点年":"民国","终点经":112.963007,"终点纬":24.581194,"Shape_Leng":0.055437895156700001},"geometry":{"type":"LineString","coordinates":[[105.000887892178682,0.000253866941209],[105.000887522913132,0.000254170949102]]}},
{"type":"Feature","properties":{"OID_":0,"起点经":113.0099618,"起点纬":24.5518281,"起点年":"民国","终点经":112.991368,"终点纬":24.581043,"Shape_Leng":0.0346208046129},"geometry":{"type":"LineString","coordinates":[[105.000887892178682,0.000253866941209],[105.000887746045038,0.000254168878466]]}},
{"type":"Feature","properties":{"OID_":0,"起点经":113.0099618,"起点纬":24.5518281,"起点年":"现代","终点经":113.010087,"终点纬":24.589181,"Shape_Leng":0.037400134412799997},"geometry":{"type":"LineString","coordinates":[[105.000887892178682,0.000253866941209],[105.000887892966972,0.000254253666804]]}},
{"type":"Feature","properties":{"OID_":0,"起点经":113.0099618,"起点纬":24.5518281,"起点年":"民国","终点经":113.021873,"终点纬":24.58761,"Shape_Leng":0.03772598527},"geometry":{"type":"LineString","coordinates":[[105.000887892178682,0.000253866941209],[105.000887985676599,0.000254237121313]]}},
{"type":"Feature","properties":{"OID_":0,"起点经":113.060344,"起点纬":24.651261,"起点年":"清","终点经":112.955102,"终点纬":24.625713,"Shape_Leng":0.10827003296},"geometry":{"type":"LineString","coordinates":[[105.000888287380576,0.000254895792123],[105.000887460847878,0.000254631091293]]}},
{"type":"Feature","properties":{"OID_":0,"起点经":113.060344,"起点纬":24.651261,"起点年":"现代","终点经":112.9588398,"终点纬":24.6260671,"Shape_Leng":0.104581500109},"geometry":{"type":"LineString","coordinates":[[105.000888287380576,0.000254895792123],[105.000887489917901,0.00025463522705]]}},
{"type":"Feature","properties":{"OID_":0,"起点经":112.954641,"起点纬":24.614105,"起点年":"现代","终点经":112.9655068,"终点纬":24.6256441,"Shape_Leng":0.015844874361199999},"geometry":{"type":"LineString","coordinates":[[105.000887456918662,0.000254511144343],[105.000887542558161,0.000254630056297]]}},
{"type":"Feature","properties":{"OID_":0,"起点经":113.0225368,"起点纬":24.6911141,"起点年":"民国","终点经":112.902633,"终点纬":24.641283,"Shape_Leng":0.12983085095399999},"geometry":{"type":"LineString","coordinates":[[105.000887990397942,0.000255307337853],[105.000887048369208,0.000254792404147]]}},
{"type":"Feature","properties":{"OID_":0,"起点经":113.208534,"起点纬":24.904229,"起点年":"现代","终点经":112.9134088,"终点纬":24.6170111,"Shape_Leng":0.41178617015899999},"geometry":{"type":"LineString","coordinates":[[105.000889451769879,0.000257510829322],[105.000887133220473,0.000254541134887]]}},
{"type":"Feature","properties":{"OID_":0,"起点经":113.020544,"起点纬":24.564531,"起点年":"现代","终点经":112.924801,"终点纬":24.608141,"Shape_Leng":0.105163918993},"geometry":{"type":"LineString","coordinates":[[105.000887974675521,0.000253998261532],[105.000887222786886,0.000254449105559]]}},
{"type":"Feature","properties":{"OID_":0,"起点经":113.30524,"起点纬":24.752133,"起点年":"现代","终点经":113.295598,"终点纬":24.724757,"Shape_Leng":0.028938728088899999},"geometry":{"type":"LineString","coordinates":[[105.000890211507624,0.000255938067339],[105.000890136080841,0.000255655779219]]}},
{"type":"Feature","properties":{"OID_":0,"起点经":113.300934,"起点纬":24.724047,"起点年":"民国","终点经":113.297321,"终点纬":24.727254,"Shape_Leng":0.0048836471509500004},"geometry":{"type":"LineString","coordinates":[[105.000890177721601,0.000255647506507],[105.000890149437495,0.0002556816297]]}},
{"type":"Feature","properties":{"OID_":0,"起点经":113.26188,"起点纬":24.702102,"起点年":"现代","终点经":113.2717318,"终点纬":24.7134561,"Shape_Leng":0.015033294679400001},"geometry":{"type":"LineString","coordinates":[[105.000889871306498,0.000255421058514],[105.000889948303524,0.000255538936525]]}},
{"type":"Feature","properties":{"OID_":0,"起点经":113.25747,"起点纬":24.711131,"起点年":"现代","终点经":113.2685698,"终点纬":24.7140691,"Shape_Leng":0.011498258846700001},"geometry":{"type":"LineString","coordinates":[[105.0008898367374,0.000255514121218],[105.000889923947611,0.000255545140965]]}},
{"type":"Feature","properties":{"OID_":0,"起点经":113.140396,"起点纬":24.986726,"起点年":"清","终点经":113.2660144,"终点纬":24.775602,"Shape_Leng":0.24563910463499999},"geometry":{"type":"LineString","coordinates":[[105.00088891673046,0.000258363906831],[105.000889903524381,0.000256181067015]]}},
{"type":"Feature","properties":{"OID_":0,"起点经":113.2674868,"起点纬":24.7769941,"起点年":"清","终点经":113.2660144,"终点纬":24.775602,"Shape_Leng":0.0020518275999699999},"geometry":{"type":"LineString","coordinates":[[105.0008899153096,0.000256195543224],[105.000889903524381,0.000256181067015]]}},
{"type":"Feature","properties":{"OID_":0,"起点经":113.2674868,"起点纬":24.7769941,"起点年":"清","终点经":113.271188,"终点纬":24.777989,"Shape_Leng":0.0038327565451499999},"geometry":{"type":"LineString","coordinates":[[105.0008899153096,0.000256195543224],[105.000889944379708,0.000256205883122]]}},
{"type":"Feature","properties":{"OID_":0,"起点经":113.3097118,"起点纬":24.7709391,"起点年":"明","终点经":113.271188,"终点纬":24.777989,"Shape_Leng":0.0391492015831},"geometry":{"type":"LineString","coordinates":[[105.000890246864373,0.000256132463729],[105.000889944379708,0.000256205883122]]}},
{"type":"Feature","properties":{"OID_":0,"起点经":113.3033118,"起点纬":24.7485001,"起点年":"明","终点经":113.271188,"终点纬":24.777989,"Shape_Leng":0.043596559240900001},"geometry":{"type":"LineString","coordinates":[[105.000890196579547,0.000255900842574],[105.000889944379708,0.000256205883122]]}},
{"type":"Feature","properties":{"OID_":0,"起点经":113.2674868,"起点纬":24.7769941,"起点年":"清","终点经":113.271188,"终点纬":24.777989,"Shape_Leng":0.0038327565451499999},"geometry":{"type":"LineString","coordinates":[[105.0008899153096,0.000256195543224],[105.000889944379708,0.000256205883122]]}},
{"type":"Feature","properties":{"OID_":0,"起点经":113.3097118,"起点纬":24.7709391,"起点年":"明","终点经":113.271188,"终点纬":24.777989,"Shape_Leng":0.0391492015831},"geometry":{"type":"LineString","coordinates":[[105.000890246864373,0.000256132463729],[105.000889944379708,0.000256205883122]]}},
{"type":"Feature","properties":{"OID_":0,"起点经":113.3033118,"起点纬":24.7485001,"起点年":"明","终点经":113.271188,"终点纬":24.777989,"Shape_Leng":0.043596559240900001},"geometry":{"type":"LineString","coordinates":[[105.000890196579547,0.000255900842574],[105.000889944379708,0.000256205883122]]}},
{"type":"Feature","properties":{"OID_":0,"起点经":113.3057686,"起点纬":24.7516683,"起点年":"现代","终点经":113.307763,"终点纬":24.744768,"Shape_Leng":0.0071840095897100003},"geometry":{"type":"LineString","coordinates":[[105.000890216221649,0.000255933931182],[105.000890231934676,0.000255862583202]]}},
{"type":"Feature","properties":{"OID_":0,"起点经":113.3057686,"起点纬":24.7516683,"起点年":"清","终点经":113.3058,"终点纬":24.740403,"Shape_Leng":0.0113000003621},"geometry":{"type":"LineString","coordinates":[[105.000890216221649,0.000255933931182],[105.000890216220853,0.000255817086258]]}},
{"type":"Feature","properties":{"OID_":0,"起点经":113.139066,"起点纬":25.036864,"起点年":"清","终点经":113.24335,"终点纬":24.733537,"Shape_Leng":0.320827133712},"geometry":{"type":"LineString","coordinates":[[105.000888906520217,0.000258882987801],[105.000889725958686,0.000255745744281]]}},
{"type":"Feature","properties":{"OID_":0,"起点经":113.3317588,"起点纬":24.7544141,"起点年":"清","终点经":113.284127,"终点纬":24.769469,"Shape_Leng":0.050032988353599997},"geometry":{"type":"LineString","coordinates":[[105.000890420497541,0.00025596184745],[105.000890045731268,0.00025611798975]]}},
{"type":"Feature","properties":{"OID_":0,"起点经":113.298461,"起点纬":24.759079,"起点年":"清","终点经":113.328995,"终点纬":24.797124,"Shape_Leng":0.0487262751008},"geometry":{"type":"LineString","coordinates":[[105.000890158867861,0.000256010449749],[105.000890398501639,0.000256403376655]]}},
{"type":"Feature","properties":{"OID_":0,"起点经":113.277323,"起点纬":24.718482,"起点年":"现代","终点经":113.322104,"终点纬":24.787192,"Shape_Leng":0.082016643538700001},"geometry":{"type":"LineString","coordinates":[[105.000889992301722,0.000255590637277],[105.000890344289303,0.000256301008783]]}},
{"type":"Feature","properties":{"OID_":0,"起点经":113.300934,"起点纬":24.724047,"起点年":"现代","终点经":113.301455,"终点纬":24.78503,"Shape_Leng":0.061002950492400003},"geometry":{"type":"LineString","coordinates":[[105.000890177721601,0.000255647506507],[105.000890182439946,0.000256278262125]]}},
{"type":"Feature","properties":{"OID_":0,"起点经":113.344293,"起点纬":24.819148,"起点年":"清","终点经":113.3451678,"终点纬":24.8233581,"Shape_Leng":0.0043931759754399996},"geometry":{"type":"LineString","coordinates":[[105.0008905187116,0.00025663086091],[105.00089052578295,0.000256675323934]]}},
{"type":"Feature","properties":{"OID_":0,"起点经":113.245744,"起点纬":24.931886,"起点年":"现代","终点经":113.365247,"终点纬":24.817795,"Shape_Leng":0.16522427177},"geometry":{"type":"LineString","coordinates":[[105.000889744043221,0.00025779725099],[105.000890682917742,0.000256617416634]]}},
{"type":"Feature","properties":{"OID_":0,"起点经":113.302379,"起点纬":24.940109,"起点年":"现代","终点经":113.3500568,"终点纬":24.8037331,"Shape_Leng":0.144499999873},"geometry":{"type":"LineString","coordinates":[[105.000890189521954,0.000257882035856],[105.000890564279686,0.000256471620423]]}},
{"type":"Feature","properties":{"OID_":0,"起点经":113.3909258,"起点纬":24.8533141,"起点年":"民国","终点经":113.391056,"终点纬":24.843684,"Shape_Leng":0.00960208262501},"geometry":{"type":"LineString","coordinates":[[105.00089088483891,0.000256984493358],[105.000890886409593,0.00025688522688]]}},
{"type":"Feature","properties":{"OID_":0,"起点经":113.3097118,"起点纬":24.7709391,"起点年":"清","终点经":113.393839,"终点纬":24.854712,"Shape_Leng":0.118723418572},"geometry":{"type":"LineString","coordinates":[[105.000890246864373,0.000256132463729],[105.000890907623614,0.000256998969456]]}},
{"type":"Feature","properties":{"OID_":0,"起点经":113.380926,"起点纬":24.858614,"起点年":"明","终点经":113.382647,"终点纬":24.867445,"Shape_Leng":0.0089627002446300008},"geometry":{"type":"LineString","coordinates":[[105.000890806271698,0.000257039297656],[105.000890819628793,0.000257130291755]]}},
{"type":"Feature","properties":{"OID_":0,"起点经":113.157196,"起点纬":24.976788,"起点年":"清","终点经":113.374266,"终点纬":24.853848,"Shape_Leng":0.24952236241199999},"geometry":{"type":"LineString","coordinates":[[105.000889048723309,0.000258261536729],[105.000890754416758,0.000256989665021]]}},
{"type":"Feature","properties":{"OID_":0,"起点经":113.407852,"起点纬":24.812506,"起点年":"现代","终点经":113.402262,"终点纬":24.8119412,"Shape_Leng":0.0056320527802699999},"geometry":{"type":"LineString","coordinates":[[105.000891018400921,0.000256562609318],[105.000890974403035,0.000256556405666]]}},
{"type":"Feature","properties":{"OID_":0,"起点经":113.3408,"起点纬":24.826334,"起点年":null,"终点经":113.39826,"终点纬":24.800834,"Shape_Leng":0.062900716177400007},"geometry":{"type":"LineString","coordinates":[[105.000890491213426,0.00025670531106],[105.000890942975204,0.000256441629192]]}},
{"type":"Feature","properties":{"OID_":0,"起点经":113.282505,"起点纬":24.955585,"起点年":"现代","终点经":113.371827,"终点纬":24.826105,"Shape_Leng":0.15730461044800001},"geometry":{"type":"LineString","coordinates":[[105.000890033173562,0.000258042311682],[105.000890734772923,0.000256703240157]]}},
{"type":"Feature","properties":{"OID_":0,"起点经":113.302379,"起点纬":24.940109,"起点年":"现代","终点经":113.384759,"终点纬":24.826295,"Shape_Leng":0.14049982113199999},"geometry":{"type":"LineString","coordinates":[[105.000890189521954,0.000257882035856],[105.00089083691077,0.000256705306976]]}}
]
}
